NORAD_CAT_ID,OBJECT_NAME,OBJECT_TYPE,EPOCH,MEAN_MOTION,ECCENTRICITY,INCLINATION,RA_OF_ASC_NODE,ARG_OF_PERICENTER,MEAN_ANOMALY,BSTAR,MEAN_MOTION_DOT,MEAN_MOTION_DDOT,TLE_LINE0,TLE_LINE1,TLE_LINE2,SEMIMAJOR_AXIS,PERIOD,APOGEE,PERIGEE,DECAYED
54209.0,STARLINK-5259,PAYLOAD,2024-05-08 16:15:31,15.08854795,0.0001414,53.2169,111.5786,87.2162,272.8992,6.7888e-05,7.93e-06,0.0,0 STARLINK-5259,1 54209U 22141BE  24129.67744541  .00000793  00000-0  67888-4 0  9996,2 54209  53.2169 111.5786 0001414  87.2162 272.8992 15.08854795 84994,6917.835,95.437,540.678,538.722,0.0
54209.0,STARLINK-5259,PAYLOAD,2024-05-09 04:58:37,15.0883264,0.0001408,53.2167,109.1986,98.2908,261.8244,-6.1936e-05,-1.273e-05,0.0,0 STARLINK-5259,1 54209U 22141BE  24130.20738393 -.00001273  00000-0 -61936-4 0  9999,2 54209  53.2167 109.1986 0001408  98.2908 261.8244 15.08832640 85309,6917.903,95.438,540.742,538.794,0.0
54209.0,STARLINK-5259,PAYLOAD,2024-05-09 08:09:24,15.08832796,0.000142,53.2167,108.6038,98.4362,261.6791,-5.7588e-05,-1.204e-05,0.0,0 STARLINK-5259,1 54209U 22141BE  24130.33986427 -.00001204  00000-0 -57588-4 0  9998,2 54209  53.2167 108.6038 0001420  98.4362 261.6791 15.08832796 85094,6917.902,95.438,540.75,538.785,0.0
54209.0,STARLINK-5259,PAYLOAD,2024-05-09 16:06:19,15.08839108,0.0001432,53.2171,107.1179,96.5643,263.5512,-2.9665e-06,-3.35e-06,0.0,0 STARLINK-5259,1 54209U 22141BE  24130.67106030 -.00000335  00000-0 -29665-5 0  9999,2 54209  53.2171 107.1179 0001432  96.5643 263.5512 15.08839108 85370,6917.883,95.438,540.739,538.757,0.0
54209.0,STARLINK-5259,PAYLOAD,2024-05-10 04:49:24,15.08849175,0.0001353,53.2173,104.7388,96.5296,263.5851,5.2618e-05,5.5e-06,0.0,0 STARLINK-5259,1 54209U 22141BE  24131.20097404  .00000550  00000-0  52618-4 0  9993,2 54209  53.2173 104.7388 0001353  96.5296 263.5851 15.08849175 85453,6917.852,95.437,540.653,538.781,0.0
54209.0,STARLINK-5259,PAYLOAD,2024-05-10 08:00:10,15.08847027,0.0001441,53.2165,104.1437,96.8691,263.2465,0.00014761,2.062e-05,0.0,0 STARLINK-5259,1 54209U 22141BE  24131.33345581  .00002062  00000-0  14761-3 0  9995,2 54209  53.2165 104.1437 0001441  96.8691 263.2465 15.08847027 85242,6917.859,95.437,540.721,538.727,0.0
54209.0,STARLINK-5259,PAYLOAD,2024-05-10 22:18:39,15.08839251,0.0001493,53.2164,101.4676,99.4597,260.6564,0.0003393,5.116e-05,0.0,0 STARLINK-5259,1 54209U 22141BE  24131.92962300  .00005116  00000-0  33930-3 0  9996,2 54209  53.2164 101.4676 0001493  99.4597 260.6564 15.08839251 85338,6917.883,95.438,540.781,538.715,0.0
54209.0,STARLINK-5259,PAYLOAD,2024-05-11 04:40:11,15.08852589,0.0001706,53.2174,100.276,103.3284,256.7899,0.00046034,7.048e-05,0.0,0 STARLINK-5259,1 54209U 22141BE  24132.19457721  .00007048  00000-0  46034-3 0  9997,2 54209  53.2174 100.2760 0001706 103.3284 256.7899 15.08852589 85601,6917.842,95.437,540.887,538.527,0.0
54209.0,STARLINK-5259,PAYLOAD,2024-05-11 07:50:57,15.0888254,0.00016,53.217,99.6787,100.2511,259.8661,0.0013379,0.00021094,0.0,0 STARLINK-5259,1 54209U 22141BE  24132.32705395  .00021094  00000-0  13379-2 0  9997,2 54209  53.2170  99.6787 0001600 100.2511 259.8661 15.08882540 85622,6917.75,95.435,540.722,538.509,0.0
54209.0,STARLINK-5259,PAYLOAD,2024-05-12 04:30:58,15.08771794,0.0001431,53.2177,95.816,89.6175,270.4981,-0.002485,-0.00039546,0.0,0 STARLINK-5259,1 54209U 22141BE  24133.18818181 -.00039546  00000-0 -24850-2 0  9999,2 54209  53.2177  95.8160 0001431  89.6175 270.4981 15.08771794 85756,6918.089,95.442,540.944,538.964,0.0
54209.0,STARLINK-5259,PAYLOAD,2024-05-12 14:03:19,15.08747007,0.0001227,53.2169,94.0318,88.8827,271.2306,-0.0022059,-0.00035134,0.0,0 STARLINK-5259,1 54209U 22141BE  24133.58564764 -.00035134  00000-0 -22059-2 0  9996,2 54209  53.2169  94.0318 0001227  88.8827 271.2306 15.08747007 85582,6918.165,95.443,540.879,539.181,0.0
54209.0,STARLINK-5259,PAYLOAD,2024-05-13 04:21:48,15.08812374,0.0001674,53.2178,91.363,112.8027,247.3142,0.00064399,9.968e-05,0.0,0 STARLINK-5259,1 54209U 22141BE  24134.18181512  .00009968  00000-0  64399-3 0  9997,2 54209  53.2178  91.3630 0001674 112.8027 247.3142 15.08812374 85903,6917.965,95.439,540.988,538.672,0.0
54209.0,STARLINK-5259,PAYLOAD,2024-05-13 13:54:07,15.08838133,0.0001601,53.2184,89.5772,108.9395,251.1771,0.0011909,0.00018715,0.0,0 STARLINK-5259,1 54209U 22141BE  24134.57925899  .00018715  00000-0  11909-2 0  9992,2 54209  53.2184  89.5772 0001601 108.9395 251.1771 15.08838133 85733,6917.886,95.438,540.859,538.644,0.0
54209.0,STARLINK-5259,PAYLOAD,2024-05-14 05:47:58,15.08869954,0.0001348,53.2172,86.6023,107.9925,252.1214,0.00097679,0.00015304,0.0,0 STARLINK-5259,1 54209U 22141BE  24135.24164720  .00015304  00000-0  97679-3 0  9995,2 54209  53.2172  86.6023 0001348 107.9925 252.1214 15.08869954 86068,6917.789,95.436,540.586,538.721,0.0
54209.0,STARLINK-5259,PAYLOAD,2024-05-14 13:44:53,15.08881843,0.0001278,53.2169,85.1146,96.6549,263.4588,0.0010697,0.00016797,0.0,0 STARLINK-5259,1 54209U 22141BE  24135.57283947  .00016797  00000-0  10697-2 0  9995,2 54209  53.2169  85.1146 0001278  96.6549 263.4588 15.08881843 85881,6917.752,95.435,540.502,538.733,0.0
54209.0,STARLINK-5259,PAYLOAD,2024-05-15 04:03:20,15.08875263,0.00014,53.2165,82.4384,98.0975,262.0176,0.00063601,9.858e-05,0.0,0 STARLINK-5259,1 54209U 22141BE  24136.16899069  .00009858  00000-0  63601-3 0  9993,2 54209  53.2165  82.4384 0001400  98.0975 262.0176 15.08875263 86201,6917.773,95.435,540.606,538.669,0.0
54209.0,STARLINK-5259,PAYLOAD,2024-05-15 05:38:43,15.08877207,0.0001411,53.2164,82.141,98.1677,261.9476,0.00071087,0.00011055,0.0,0 STARLINK-5259,1 54209U 22141BE  24136.23522922  .00011055  00000-0  71087-3 0  9991,2 54209  53.2164  82.1410 0001411  98.1677 261.9476 15.08877207 85984,6917.767,95.435,540.608,538.656,0.0
54209.0,STARLINK-5259,PAYLOAD,2024-05-16 03:54:07,15.08834113,0.0001269,53.2171,77.9766,93.9223,266.1914,-0.00038873,-6.468e-05,0.0,0 STARLINK-5259,1 54209U 22141BE  24137.16258330 -.00006468  00000-0 -38873-3 0  9993,2 54209  53.2171  77.9766 0001269  93.9223 266.1914 15.08834113 86354,6917.898,95.438,540.641,538.886,0.0
54209.0,STARLINK-5259,PAYLOAD,2024-05-16 13:26:26,15.08847008,0.0001312,53.2173,76.194,87.7195,272.3948,0.00098379,0.00015407,0.0,0 STARLINK-5259,1 54209U 22141BE  24137.56002590  .00015407  00000-0  98379-3 0  9990,2 54209  53.2173  76.1940 0001312  87.7195 272.3948 15.08847008 86183,6917.859,95.437,540.632,538.816,0.0
54209.0,STARLINK-5259,PAYLOAD,2024-05-17 02:09:31,15.08839786,0.0001327,53.2163,73.8145,97.2126,262.9017,0.0008675,0.00013545,0.0,0 STARLINK-5259,1 54209U 22141BE  24138.08994917  .00013545  00000-0  86750-3 0  9992,2 54209  53.2163  73.8145 0001327  97.2126 262.9017 15.08839786 86499,6917.881,95.438,540.664,538.828,0.0
54209.0,STARLINK-5259,PAYLOAD,2024-05-17 13:17:13,15.08859836,0.0001418,53.2171,71.7321,99.3618,260.7535,0.0008302,0.00012956,0.0,0 STARLINK-5259,1 54209U 22141BE  24138.55362341  .00012956  00000-0  83020-3 0  9996,2 54209  53.2171  71.7321 0001418  99.3618 260.7535 15.08859836 86333,6917.82,95.436,540.666,538.704,0.0
54209.0,STARLINK-5259,PAYLOAD,2024-05-17 22:49:32,15.08829817,0.000153,53.2178,69.9488,89.5999,270.5168,-0.00013949,-2.507e-05,0.0,0 STARLINK-5259,1 54209U 22141BE  24138.95106946 -.00002507  00000-0 -13949-3 0  9993,2 54209  53.2178  69.9488 0001530  89.5999 270.5168 15.08829817 86394,6917.912,95.438,540.835,538.718,0.0
54209.0,STARLINK-5259,PAYLOAD,2024-05-18 05:11:05,15.08849376,0.0001667,53.2177,68.7575,87.6233,272.495,0.0031691,0.00050523,0.0,0 STARLINK-5259,1 54209U 22141BE  24139.21603174  .00050523  00000-0  31691-2 0  9990,2 54209  53.2177  68.7575 0001667  87.6233 272.4950 15.08849376 86660,6917.852,95.437,540.87,538.564,0.0
54209.0,STARLINK-5259,PAYLOAD,2024-05-18 19:29:33,15.08847983,0.0001274,53.2174,66.0811,84.9843,275.1294,0.0010059,0.00015761,0.0,0 STARLINK-5259,1 54209U 22141BE  24139.81219218  .00015761  00000-0  10059-2 0  9998,2 54209  53.2174  66.0811 0001274  84.9843 275.1294 15.08847983 86755,6917.856,95.437,540.602,538.84,0.0
54209.0,STARLINK-5259,PAYLOAD,2024-05-18 22:40:19,15.08825049,0.0001026,53.2174,65.4855,77.7849,282.3258,0.00035908,5.429e-05,0.0,0 STARLINK-5259,1 54209U 22141BE  24139.94467472  .00005429  00000-0  35908-3 0  9990,2 54209  53.2174  65.4855 0001026  77.7849 282.3258 15.08825049 86543,6917.926,95.439,540.501,539.081,0.0
54209.0,STARLINK-5259,PAYLOAD,2024-05-19 01:51:06,15.08831802,0.0001323,53.2172,64.8908,99.0844,261.0298,0.0003168,4.756e-05,0.0,0 STARLINK-5259,1 54209U 22141BE  24140.07715476  .00004756  00000-0  31680-3 0  9991,2 54209  53.2172  64.8908 0001323  99.0844 261.0298 15.08831802 86794,6917.905,95.438,540.686,538.855,0.0
54209.0,STARLINK-5259,PAYLOAD,2024-05-20 00:06:30,15.08834152,0.0001316,53.2174,60.7292,106.4763,253.6374,0.00052636,8.098e-05,0.0,0 STARLINK-5259,1 54209U 22141BE  24141.00452282  .00008098  00000-0  52636-3 0  9995,2 54209  53.2174  60.7292 0001316 106.4763 253.6374 15.08834152 86931,6917.898,95.438,540.674,538.853,0.0
54209.0,STARLINK-5259,PAYLOAD,2024-05-21 04:43:27,15.08838511,0.0001315,53.2174,55.3781,109.4976,250.6159,0.00021779,3.18e-05,0.0,0 STARLINK-5259,1 54209U 22141BE  24142.19684582  .00003180  00000-0  21779-3 0  9997,2 54209  53.2174  55.3781 0001315 109.4976 250.6159 15.08838511 87114,6917.885,95.438,540.66,538.84,0.0
54209.0,STARLINK-5259,PAYLOAD,2024-05-21 22:12:42,15.08842662,0.0001253,53.2179,52.1052,87.9133,272.2002,0.0004689,7.183e-05,0.0,0 STARLINK-5259,1 54209U 22141BE  24142.92548613  .00007183  00000-0  46890-3 0  9990,2 54209  53.2179  52.1052 0001253  87.9133 272.2002 15.08842662 86995,6917.872,95.437,540.604,538.87,0.0
54209.0,STARLINK-5259,PAYLOAD,2024-05-22 02:58:50,15.08856378,0.0001334,53.2178,51.2131,103.6256,256.4885,0.00045413,6.95e-05,0.0,0 STARLINK-5259,1 54209U 22141BE  24143.12419899  .00006950  00000-0  45413-3 0  9997,2 54209  53.2178  51.2131 0001334 103.6256 256.4885 15.08856378 87256,6917.83,95.437,540.618,538.772,0.0
